{
    "week": 295,
    "satellites": [
        {
            "Name": "BEIDOU-3 M8 (C28)",
            "Line1": "1 43108U 18003B   24337.10569299 -.00000059  00000+0  00000+0 0  9991",
            "Line2": "2 43108  54.8040 321.8195 0005150 268.0921  91.8484  1.86230917 46895",
            "SatelliteNumber": "43108",
            "Classification": "U",
            "LaunchYear": "18",
            "LaunchNumber": "003",
            "PieceOfLaunch": "B",
            "EpochYear": "24",
            "EpochDay": 337.10569299,
            "FirstDerivativeMeanMotion": -5.9e-07,
            "SecondDerivativeMeanMotion": "00000+0",
            "BSTAR": "00000+0",
            "SetNumber": "999",
            "Inclination": 54.804,
            "RAAN": 321.8195,
            "Eccentricity": 0.000515,
            "ArgumentOfPerigee": 268.0921,
            "MeanAnomaly": 91.8484,
            "MeanMotion": 1.86230917,
            "RevolutionNumber": "4689"
        },
        {
            "Name": "BEIDOU-3 M4 (C22)",
            "Line1": "1 43207U 18018A   24337.00986268 -.00000020  00000+0  00000+0 0  9993",
            "Line2": "2 43207  56.1608  81.7635 0003606   8.3262 351.6683  1.86231168 46277",
            "SatelliteNumber": "43207",
            "Classification": "U",
            "LaunchYear": "18",
            "LaunchNumber": "018",
            "PieceOfLaunch": "A",
            "EpochYear": "24",
            "EpochDay": 337.00986268,
            "FirstDerivativeMeanMotion": -2e-07,
            "SecondDerivativeMeanMotion": "00000+0",
            "BSTAR": "00000+0",
            "SetNumber": "999",
            "Inclination": 56.1608,
            "RAAN": 81.7635,
            "Eccentricity": 0.0003606,
            "ArgumentOfPerigee": 8.3262,
            "MeanAnomaly": 351.6683,
            "MeanMotion": 1.86231168,
            "RevolutionNumber": "4627"
        },
        {
            "Name": "BEIDOU-3 M3 (C21)",
            "Line1": "1 43208U 18018B   24337.61342408 -.00000016  00000+0  00000+0 0  9998",
            "Line2": "2 43208  56.1608  81.7477 0005992 309.1912  50.7471  1.86231300 46287",
            "SatelliteNumber": "43208",
            "Classification": "U",
            "LaunchYear": "18",
            "LaunchNumber": "018",
            "PieceOfLaunch": "B",
            "EpochYear": "24",
            "EpochDay": 337.61342408,
            "FirstDerivativeMeanMotion": -1.6e-07,
            "SecondDerivativeMeanMotion": "00000+0",
            "BSTAR": "00000+0",
            "SetNumber": "999",
            "Inclination": 56.1608,
            "RAAN": 81.7477,
            "Eccentricity": 0.0005992,
            "ArgumentOfPerigee": 309.1912,
            "MeanAnomaly": 50.7471,
            "MeanMotion": 1.862313,
            "RevolutionNumber": "4628"
        },
        {
            "Name": "BEIDOU-3 M9 (C29)",
            "Line1": "1 43245U 18029A   24337.29620359 -.00000057  00000+0  00000+0 0  9994",
            "Line2": "2 43245  54.6894 319.5201 0002219 273.5703  86.4013  1.86232678 45439",
            "SatelliteNumber": "43245",
            "Classification": "U",
            "LaunchYear": "18",
            "LaunchNumber": "029",
            "PieceOfLaunch": "A",
            "EpochYear": "24",
            "EpochDay": 337.29620359,
            "FirstDerivativeMeanMotion": -5.7e-07,
            "SecondDerivativeMeanMotion": "00000+0",
            "BSTAR": "00000+0",
            "SetNumber": "999",
            "Inclination": 54.6894,
            "RAAN": 319.5201,
            "Eccentricity": 0.0002219,
            "ArgumentOfPerigee": 273.5703,
            "MeanAnomaly": 86.4013,
            "MeanMotion": 1.86232678,
            "RevolutionNumber": "4543"
        },
        {
            "Name": "BEIDOU-3 M10 (C30)",
            "Line1": "1 43246U 18029B   24337.22564812 -.00000058  00000+0  00000+0 0  9990",
            "Line2": "2 43246  54.6864 319.5496 0003978 346.4087  13.5775  1.86232832 45417",
            "SatelliteNumber": "43246",
            "Classification": "U",
            "LaunchYear": "18",
            "LaunchNumber": "029",
            "PieceOfLaunch": "B",
            "EpochYear": "24",
            "EpochDay": 337.22564812,
            "FirstDerivativeMeanMotion": -5.8e-07,
            "SecondDerivativeMeanMotion": "00000+0",
            "BSTAR": "00000+0",
            "SetNumber": "999",
            "Inclination": 54.6864,
            "RAAN": 319.5496,
            "Eccentricity": 0.0003978,
            "ArgumentOfPerigee": 346.4087,
            "MeanAnomaly": 13.5775,
            "MeanMotion": 1.86232832,
            "RevolutionNumber": "4541"
        },
        {
            "Name": "BEIDOU-2 IGSO-7 (C16)",
            "Line1": "1 43539U 18057A   24337.48946595 -.00000035  00000+0  00000+0 0  9991",
            "Line2": "2 43539  55.1523 167.9203 0078174 232.0041 320.4302  1.00260466 23503",
            "SatelliteNumber": "43539",
            "Classification": "U",
            "LaunchYear": "18",
            "LaunchNumber": "057",
            "PieceOfLaunch": "A",
            "EpochYear": "24",
            "EpochDay": 337.48946595,
            "FirstDerivativeMeanMotion": -3.5e-07,
            "SecondDerivativeMeanMotion": "00000+0",
            "BSTAR": "00000+0",
            "SetNumber": "999",
            "Inclination": 55.1523,
            "RAAN": 167.9203,
            "Eccentricity": 0.0078174,
            "ArgumentOfPerigee": 232.0041,
            "MeanAnomaly": 320.4302,
            "MeanMotion": 1.00260466,
            "RevolutionNumber": "2350"
        },
        {
            "Name": "BEIDOU-3 M5 (C23)",
            "Line1": "1 43581U 18062A   24334.22967432  .00000090  00000+0  00000+0 0  9996",
            "Line2": "2 43581  54.1133 201.5173 0002222 336.8401  23.2545  1.86228935 43116",
            "SatelliteNumber": "43581",
            "Classification": "U",
            "LaunchYear": "18",
            "LaunchNumber": "062",
            "PieceOfLaunch": "A",
            "EpochYear": "24",
            "EpochDay": 334.22967432,
            "FirstDerivativeMeanMotion": 9e-07,
            "SecondDerivativeMeanMotion": "00000+0",
            "BSTAR": "00000+0",
            "SetNumber": "999",
            "Inclination": 54.1133,
            "RAAN": 201.5173,
            "Eccentricity": 0.0002222,
            "ArgumentOfPerigee": 336.8401,
            "MeanAnomaly": 23.2545,
            "MeanMotion": 1.86228935,
            "RevolutionNumber": "4311"
        },
        {
            "Name": "BEIDOU-3 M6 (C24)",
            "Line1": "1 43582U 18062B   24337.31635680  .00000091  00000+0  00000+0 0  9998",
            "Line2": "2 43582  54.1130 201.4015 0007259  39.1370 321.0218  1.86229869 43170",
            "SatelliteNumber": "43582",
            "Classification": "U",
            "LaunchYear": "18",
            "LaunchNumber": "062",
            "PieceOfLaunch": "B",
            "EpochYear": "24",
            "EpochDay": 337.3163568,
            "FirstDerivativeMeanMotion": 9.1e-07,
            "SecondDerivativeMeanMotion": "00000+0",
            "BSTAR": "00000+0",
            "SetNumber": "999",
            "Inclination": 54.113,
            "RAAN": 201.4015,
            "Eccentricity": 0.0007259,
            "ArgumentOfPerigee": 39.137,
            "MeanAnomaly": 321.0218,
            "MeanMotion": 1.86229869,
            "RevolutionNumber": "4317"
        },
        {
            "Name": "BEIDOU-3 M12 (C26)",
            "Line1": "1 43602U 18067A   24337.25029093  .00000092  00000+0  00000+0 0  9995",
            "Line2": "2 43602  54.2048 200.1003 0008606  34.4023 325.7594  1.86227728 42657",
            "SatelliteNumber": "43602",
            "Classification": "U",
            "LaunchYear": "18",
            "LaunchNumber": "067",
            "PieceOfLaunch": "A",
            "EpochYear": "24",
            "EpochDay": 337.25029093,
            "FirstDerivativeMeanMotion": 9.2e-07,
            "SecondDerivativeMeanMotion": "00000+0",
            "BSTAR": "00000+0",
            "SetNumber": "999",
            "Inclination": 54.2048,
            "RAAN": 200.1003,
            "Eccentricity": 0.0008606,
            "ArgumentOfPerigee": 34.4023,
            "MeanAnomaly": 325.7594,
            "MeanMotion": 1.86227728,
            "RevolutionNumber": "4265"
        },
        {
            "Name": "BEIDOU-3 M11 (C25)",
            "Line1": "1 43603U 18067B   24336.30987257  .00000095  00000+0  00000+0 0  9999",
            "Line2": "2 43603  54.2022 200.0970 0005217  29.9130 330.2243  1.86227276 42666",
            "SatelliteNumber": "43603",
            "Classification": "U",
            "LaunchYear": "18",
            "LaunchNumber": "067",
            "PieceOfLaunch": "B",
            "EpochYear": "24",
            "EpochDay": 336.30987257,
            "FirstDerivativeMeanMotion": 9.5e-07,
            "SecondDerivativeMeanMotion": "00000+0",
            "BSTAR": "00000+0",
            "SetNumber": "999",
            "Inclination": 54.2022,
            "RAAN": 200.097,
            "Eccentricity": 0.0005217,
            "ArgumentOfPerigee": 29.913,
            "MeanAnomaly": 330.2243,
            "MeanMotion": 1.86227276,
            "RevolutionNumber": "4266"
        }
    ]
}